ONEWEB-0589             
1 54655U 22166P   25184.31187524  .00000107  00000+0  22861-3 0  9992
2 54655  87.9272 313.5798 0001233 120.9684 239.1571 13.21824183125455
ONEWEB-0590             
1 54656U 22166Q   25184.63819456  .00000020  00000+0  17383-4 0  9992
2 54656  87.9261 313.4944 0001684  87.0071 273.1256 13.21825701125487
ONEWEB-0591             
1 54657U 22166R   25184.42384625 -.00000063  00000+0 -18343-3 0  9990
2 54657  87.9274 313.5581 0001733 100.4253 259.7076 13.21827546125486
ONEWEB-0592             
1 54658U 22166S   25184.80547971 -.00000023  00000+0 -86020-4 0  9992
2 54658  87.9269 313.4337 0001729  99.6233 260.5097 13.21827791125880
ONEWEB-0593             
1 54659U 22166T   25184.37495701 -.00000170  00000+0 -44358-3 0  9998
2 54659  87.9270 313.5587 0001746 102.5061 257.6268 13.21825572125469
ONEWEB-0594             
1 54660U 22166U   25184.62097365  .00000055  00000+0  10075-3 0  9991
2 54660  87.9277 313.5227 0001952 100.4457 259.6897 13.21827213125514
ONEWEB-0595             
1 54661U 22166V   25184.37180512  .00000115  00000+0  24597-3 0  9992
2 54661  87.9272 313.5505 0002027  94.3534 265.7832 13.21824332125459
ONEWEB-0596             
1 54662U 22166W   25184.34499869  .00000017  00000+0  10849-4 0  9995
2 54662  87.9276 313.5686 0001857  97.7044 262.4300 13.21827920125457
ONEWEB-0597             
1 54663U 22166X   25184.62885940 -.00000384  00000+0 -96200-3 0  9999
2 54663  87.9279 313.5154 0001773 104.3530 255.7801 13.21829493125495
ONEWEB-0600             
1 54664U 22166Y   25184.30872448  .00000096  00000+0  20174-3 0  9999
2 54664  87.9259 313.5794 0001907 104.6076 255.5270 13.21824164125422
ONEWEB-0601             
1 54665U 22166Z   25184.60362966  .00000104  00000+0  22058-3 0  9995
2 54665  87.9277 313.5319 0001577 105.3703 254.7605 13.21825030125655
ONEWEB-0602             
1 54666U 22166AA  25184.64463199  .00000049  00000+0  87248-4 0  9991
2 54666  87.9279 313.5239 0001831 107.9024 252.2310 13.21827856125504
ONEWEB-0603             
1 54667U 22166AB  25184.80076038 -.00000020  00000+0 -80886-4 0  9994
2 54667  87.9251 313.4343 0001698 107.3018 252.8302 13.21826932125914
ONEWEB-0604             
1 54668U 22166AC  25184.63674584 -.00000040  00000+0 -12840-3 0  9992
2 54668  87.9271 313.4856 0001839 106.8607 253.2729 13.21824707125399
ONEWEB-0605             
1 54669U 22166AD  25184.63043756  .00000013  00000+0 -43585-6 0  9996
2 54669  87.9272 313.5175 0001175 101.5199 258.6067 13.21827296125465
ONEWEB-0606             
1 54670U 22166AE  25184.42542426 -.00000041  00000+0 -12972-3 0  9998
2 54670  87.9275 313.5695 0002024  95.7201 264.4164 13.21824032125490
ONEWEB-0607             
1 54671U 22166AF  25184.61939979  .00000173  00000+0  38689-3 0  9990
2 54671  87.9271 313.4959 0001806 103.3779 256.7556 13.21824881125493
ONEWEB-0608             
1 54672U 22166AG  25184.62572314  .00000138  00000+0  30177-3 0  9993
2 54672  87.9258 313.4834 0001450 111.0034 249.1255 13.21826433125505
ONEWEB-0610             
1 54673U 22166AH  25184.60678369  .00000184  00000+0  41381-3 0  9999
2 54673  87.9272 313.5183 0001473 105.0195 255.1102 13.21825197125409
ONEWEB-0611             
1 54674U 22166AJ  25184.37338091  .00000123  00000+0  26592-3 0  9999
2 54674  87.9274 313.5614 0002132  97.2002 262.9374 13.21824518125361
ONEWEB-0612             
1 54675U 22166AK  25184.31030442  .00000092  00000+0  19227-3 0  9995
2 54675  87.9273 313.5512 0001711 103.4882 256.6442 13.21827661125342
ONEWEB-0615             
1 54676U 22166AL  25184.59418146  .00000088  00000+0  18064-3 0  9990
2 54676  87.9274 313.5214 0001941  99.7621 260.3732 13.21825201125393
ONEWEB-0655             
1 54677U 22166AM  25184.34028878 -.00000067  00000+0 -19384-3 0  9998
2 54677  87.9270 313.5762 0002046 107.8161 252.3197 13.21826469125354
ONEWEB-0659             
1 54678U 22166AN  25184.58469673  .00000008  00000+0 -12324-4 0  9999
2 54678  87.9275 313.5290 0001934  95.0717 265.0638 13.21827974125472
ONEWEB-0685             
1 54679U 22166AP  25184.43488991  .00000016  00000+0  82883-5 0  9994
2 54679  87.9275 313.5536 0001659 105.2492 254.8826 13.21824904125345
ONEWEB-0712             
1 54680U 22166AQ  25184.30997116  .00000537  00000+0  13717-2 0  9991
2 54680  87.9054 298.2997 0002318 113.8909 246.2465 13.16591358126155
ONEWEB-0714             
1 54681U 22166AR  25184.59260403  .00000124  00000+0  26856-3 0  9996
2 54681  87.9277 313.5146 0001811 106.0858 254.0475 13.21826104125483
ONEWEB-0532             
1 55140U 23004A   25184.41037695  .00000031  00000+0  47138-4 0  9999
2 55140  87.9062  75.2913 0001616  66.5852 293.5450 13.17647974121654
ONEWEB-0533             
1 55141U 23004B   25184.36745086 -.00000347  00000+0 -10013-2 0  9996
2 55141  87.8876  60.0289 0001681  86.4735 273.6586 13.12443076122302
ONEWEB-0541             
1 55142U 23004C   25184.81124780  .00000470  00000+0  12916-2 0  9998
2 55142  87.8837  90.4889 0001907  76.5311 283.6029 13.11416274120292
ONEWEB-0543             
1 55143U 23004D   25184.58725933 -.00000029  00000+0 -10583-3 0  9991
2 55143  87.9118  44.7875 0001957  92.4978 267.6379 13.18726174123758
ONEWEB-0544             
1 55144U 23004E   25184.58070477  .00000021  00000+0  19943-4 0  9998
2 55144  87.9119  44.7786 0002040  85.0186 275.1179 13.18751649123751
ONEWEB-0560             
1 55145U 23004F   25184.57416364  .00000032  00000+0  47919-4 0  9993
2 55145  87.9125  44.7535 0002101  84.1875 275.9497 13.18773351123760
ONEWEB-0565             
1 55146U 23004G   25184.64350669  .00000024  00000+0  29151-4 0  9996
2 55146  87.9120  44.7991 0002118  70.4297 289.7064 13.18799845123765
ONEWEB-0567             
1 55147U 23004H   25184.56109059  .00000082  00000+0  17366-3 0  9991
2 55147  87.9126  44.7717 0002156  77.5155 282.6218 13.18824098123752
ONEWEB-0569             
1 55148U 23004J   25184.57181111  .00000192  00000+0  49041-3 0  9999
2 55148  87.8959  29.4725 0002780  81.4686 278.6758 13.13469668124412
ONEWEB-0570             
1 55149U 23004K   25184.62651719 -.00000279  00000+0 -74155-3 0  9994
2 55149  87.9120  44.7623 0001629  63.1631 296.9667 13.18581624123759
ONEWEB-0571             
1 55150U 23004L   25184.61997306  .00000044  00000+0  79648-4 0  9991
2 55150  87.9118  44.7702 0002890  65.6512 294.4921 13.18604414123762
ONEWEB-0572             
1 55151U 23004M   25184.59262839  .00000054  00000+0  10659-3 0  9992
2 55151  87.9064  75.2625 0001902  72.3257 287.8082 13.17647621121577
ONEWEB-0573             
1 55152U 23004N   25184.61343500  .00000006  00000+0 -18096-4 0  9993
2 55152  87.9117  44.7785 0002229  60.6790 299.4565 13.18630256123754
ONEWEB-0588             
1 55153U 23004P   25184.60687049  .00000849  00000+0  21211-2 0  9997
2 55153  87.9120  44.7628 0001768  68.2287 291.9033 13.18664812123759
ONEWEB-0598             
1 55154U 23004Q   25184.48401783  .00000294  00000+0  79415-3 0  9997
2 55154  87.8838  90.5908 0002530  72.0441 288.0962 13.11419066120193
ONEWEB-0599             
1 55155U 23004R   25184.62975822  .00000026  00000+0  32853-4 0  9993
2 55155  87.9065  75.2602 0002040  80.0489 280.0872 13.17650236121583
ONEWEB-0614             
1 55156U 23004S   25184.47892824 -.00000031  00000+0 -12428-3 0  9990
2 55156  87.8840  90.6010 0001623  71.0049 289.1255 13.11418623120137
ONEWEB-0616             
1 55157U 23004T   25184.59599986 -.00000029  00000+0 -10754-3 0  9994
2 55157  87.9059  75.2577 0002501 101.0816 259.0597 13.17647438121792
ONEWEB-0617             
1 55158U 23004U   25184.23815991 -.00000339  00000+0 -99211-3 0  9992
2 55158  87.8834  90.6293 0001789  66.8722 293.2595 13.11418948120120
ONEWEB-0618             
1 55159U 23004V   25184.60633648  .00001308  00000+0  22640-3 0  9998
2 55159  86.9092 316.6836 0016525 123.0945 237.1859 14.67510383129978
ONEWEB-0619             
1 55160U 23004W   25184.24838556  .00000069  00000+0  14453-3 0  9991
2 55160  87.9060  75.3050 0001432  89.0629 271.0667 13.17649021121640
ONEWEB-0620             
1 55161U 23004X   25184.46196059 -.00000569  00000+0 -16425-2 0  9998
2 55161  87.8837  90.6048 0002020  64.6511 295.4826 13.11417558120123
ONEWEB-0621             
1 55162U 23004Y   25184.48911053  .00000584  00000+0  16105-2 0  9990
2 55162  87.8834  90.5562 0001658  78.9958 281.1357 13.11418920120103
ONEWEB-0622             
1 55163U 23004Z   25184.49418994  .00000444  00000+0  12158-2 0  9997
2 55163  87.8835  90.5785 0001608  53.6205 306.5071 13.11418224120092
ONEWEB-0623             
1 55164U 23004AA  25184.62299923 -.00000042  00000+0 -14130-3 0  9991
2 55164  87.9059  75.2855 0001209  64.5141 295.6115 13.17647694121681
ONEWEB-0624             
1 55165U 23004AB  25184.91667824  .00000164  00000+0  41792-3 0  9990
2 55165  87.8883  59.9166 0001754  80.3860 268.1596 13.12938669122363
ONEWEB-0625             
1 55166U 23004AC  25184.61288089 -.00000022  00000+0 -88743-4 0  9993
2 55166  87.9060  75.2856 0001925  83.5972 276.5378 13.17648326121675
ONEWEB-0626             
1 55167U 23004AD  25184.45088234  .00000132  00000+0  30580-3 0  9991
2 55167  87.9062  75.3156 0002351  72.5982 287.5406 13.17648628121652
ONEWEB-0627             
1 55168U 23004AE  25184.59094293  .00000023  00000+0  26041-4 0  9996
2 55168  87.9059  75.2905 0001429  63.9878 296.1400 13.17649614121671
ONEWEB-0628             
1 55169U 23004AF  25184.69524353 -.00000151  00000+0 -45413-3 0  9990
2 55169  87.8873  59.9474 0001107  73.2047 286.9203 13.12444000122328
ONEWEB-0629             
1 55170U 23004AG  25184.41460301  .00000081  00000+0  17509-3 0  9999
2 55170  87.9072  75.3126 0001579  87.3596 272.7716 13.17648606121656
ONEWEB-0631             
1 55171U 23004AH  25184.52445373 -.00000203  00000+0 -54816-3 0  9994
2 55171  87.9133  44.7095 0001986  67.7516 292.3826 13.18677648123725
